{
  "type": "FeatureCollection",
  "features": [
    {
      "type": "Feature",
      "properties": {
        "norad_id": 44709,
        "name": "BEIDOU-3 IGSO-3 (C40)",
        "group": "beidou",
        "lat": -7.705872677142857,
        "lon": -82.5719683277213,
        "alt_km": 35972.2008923374,
        "timestamp": "2025-12-17T04:57:44.632625+00:00",
        "meta_object_name": "BEIDOU-3 IGSO-3 (C40)",
        "meta_object_id": "2019-073A",
        "meta_epoch": "2025-11-20T07:11:22.740000",
        "meta_mean_motion": 1.00250097,
        "meta_eccentricity": 0.0044538,
        "meta_inclination": 55.163,
        "meta_ra_of_asc_node": 283.159,
        "meta_arg_of_pericenter": 191.5856,
        "meta_mean_anomaly": 168.2409,
        "meta_ephemeris_type": 0,
        "meta_classification_type": "U",
        "meta_norad_cat_id": 44709,
        "meta_element_set_no": 999,
        "meta_rev_at_epoch": 2236,
        "meta_bstar": 0,
        "meta_mean_motion_dot": -2.06e-06,
        "meta_mean_motion_ddot": 0,
        "tle_line1": "1 44709U 19073A   25324.29956875 -.00000206  00000+0  00000+0 0  9998",
        "tle_line2": "2 44709  55.1630 283.1590 0044538 191.5856 168.2409  1.00250097 22360"
      },
      "geometry": {
        "type": "Point",
        "coordinates": [
          -82.5719683277213,
          -7.705872677142857
        ]
      }
    },
    {
      "type": "Feature",
      "properties": {
        "norad_id": 44793,
        "name": "BEIDOU-3 M22 (C44)",
        "group": "beidou",
        "lat": 52.391081595586485,
        "lon": 56.25619736083042,
        "alt_km": 21518.577697005745,
        "timestamp": "2025-12-17T04:57:44.632638+00:00",
        "meta_object_name": "BEIDOU-3 M22 (C44)",
        "meta_object_id": "2019-078A",
        "meta_epoch": "2025-12-15T23:32:20.992992",
        "meta_mean_motion": 1.86231869,
        "meta_eccentricity": 0.00058075,
        "meta_inclination": 54.1051,
        "meta_ra_of_asc_node": 306.2718,
        "meta_arg_of_pericenter": 23.5551,
        "meta_mean_anomaly": 336.4582,
        "meta_ephemeris_type": 0,
        "meta_classification_type": "U",
        "meta_norad_cat_id": 44793,
        "meta_element_set_no": 999,
        "meta_rev_at_epoch": 4123,
        "meta_bstar": 0,
        "meta_mean_motion_dot": -9.7e-07,
        "meta_mean_motion_ddot": 0,
        "tle_line1": "1 44793U 19078A   25349.98079853 -.00000097  00000+0  00000+0 0  9999",
        "tle_line2": "2 44793  54.1051 306.2718 0005807  23.5551 336.4582  1.86231869 41238"
      },
      "geometry": {
        "type": "Point",
        "coordinates": [
          56.25619736083042,
          52.391081595586485
        ]
      }
    },
    {
      "type": "Feature",
      "properties": {
        "norad_id": 44794,
        "name": "BEIDOU-3 M21 (C43)",
        "group": "beidou",
        "lat": 7.756026239769928,
        "lon": -48.16753346388942,
        "alt_km": 21516.486696098407,
        "timestamp": "2025-12-17T04:57:44.632648+00:00",
        "meta_object_name": "BEIDOU-3 M21 (C43)",
        "meta_object_id": "2019-078B",
        "meta_epoch": "2025-12-15T13:57:29.064096",
        "meta_mean_motion": 1.86227547,
        "meta_eccentricity": 0.00039999,
        "meta_inclination": 54.0788,
        "meta_ra_of_asc_node": 306.2509,
        "meta_arg_of_pericenter": 11.1298,
        "meta_mean_anomaly": 348.8661,
        "meta_ephemeris_type": 0,
        "meta_classification_type": "U",
        "meta_norad_cat_id": 44794,
        "meta_element_set_no": 999,
        "meta_rev_at_epoch": 4123,
        "meta_bstar": 0,
        "meta_mean_motion_dot": -9.9e-07,
        "meta_mean_motion_ddot": 0,
        "tle_line1": "1 44794U 19078B   25349.58158639 -.00000099  00000+0  00000+0 0  9998",
        "tle_line2": "2 44794  54.0788 306.2509 0003999  11.1298 348.8661  1.86227547 41237"
      },
      "geometry": {
        "type": "Point",
        "coordinates": [
          -48.16753346388942,
          7.756026239769928
        ]
      }
    },
    {
      "type": "Feature",
      "properties": {
        "norad_id": 44864,
        "name": "BEIDOU-3 M19 (C41)",
        "group": "beidou",
        "lat": -20.78310346894762,
        "lon": -96.58287305600916,
        "alt_km": 21522.27275631242,
        "timestamp": "2025-12-17T04:57:44.632658+00:00",
        "meta_object_name": "BEIDOU-3 M19 (C41)",
        "meta_object_id": "2019-090A",
        "meta_epoch": "2025-12-14T04:04:53.318784",
        "meta_mean_motion": 1.86231555,
        "meta_eccentricity": 0.00179181,
        "meta_inclination": 56.3949,
        "meta_ra_of_asc_node": 68.9134,
        "meta_arg_of_pericenter": 285.3736,
        "meta_mean_anomaly": 44.0547,
        "meta_ephemeris_type": 0,
        "meta_classification_type": "U",
        "meta_norad_cat_id": 44864,
        "meta_element_set_no": 999,
        "meta_rev_at_epoch": 4078,
        "meta_bstar": 0,
        "meta_mean_motion_dot": -8.2e-07,
        "meta_mean_motion_ddot": 0,
        "tle_line1": "1 44864U 19090A   25348.17006156 -.00000082  00000+0  00000+0 0  9992",
        "tle_line2": "2 44864  56.3949  68.9134 0017918 285.3736  44.0547  1.86231555 40784"
      },
      "geometry": {
        "type": "Point",
        "coordinates": [
          -96.58287305600916,
          -20.78310346894762
        ]
      }
    },
    {
      "type": "Feature",
      "properties": {
        "norad_id": 44865,
        "name": "BEIDOU-3 M20 (C42)",
        "group": "beidou",
        "lat": -49.04235129506422,
        "lon": 18.969335037341736,
        "alt_km": 21491.447976235777,
        "timestamp": "2025-12-17T04:57:44.632667+00:00",
        "meta_object_name": "BEIDOU-3 M20 (C42)",
        "meta_object_id": "2019-090B",
        "meta_epoch": "2025-12-14T14:16:43.218624",
        "meta_mean_motion": 1.86231589,
        "meta_eccentricity": 0.00151163,
        "meta_inclination": 56.3967,
        "meta_ra_of_asc_node": 68.9336,
        "meta_arg_of_pericenter": 297.6834,
        "meta_mean_anomaly": 46.2212,
        "meta_ephemeris_type": 0,
        "meta_classification_type": "U",
        "meta_norad_cat_id": 44865,
        "meta_element_set_no": 999,
        "meta_rev_at_epoch": 4077,
        "meta_bstar": 0,
        "meta_mean_motion_dot": -8.3e-07,
        "meta_mean_motion_ddot": 0,
        "tle_line1": "1 44865U 19090B   25348.59494466 -.00000083  00000+0  00000+0 0  9995",
        "tle_line2": "2 44865  56.3967  68.9336 0015116 297.6834  46.2212  1.86231589 40771"
      },
      "geometry": {
        "type": "Point",
        "coordinates": [
          18.969335037341736,
          -49.04235129506422
        ]
      }
    },
    {
      "type": "Feature",
      "properties": {
        "norad_id": 45344,
        "name": "BEIDOU-3 G2 (C60)",
        "group": "beidou",
        "lat": -0.7379283188774959,
        "lon": -119.49606712251956,
        "alt_km": 35781.000224971256,
        "timestamp": "2025-12-17T04:57:44.632678+00:00",
        "meta_object_name": "BEIDOU-3 G2 (C60)",
        "meta_object_id": "2020-017A",
        "meta_epoch": "2025-12-16T20:35:05.205696",
        "meta_mean_motion": 1.00273145,
        "meta_eccentricity": 0.00043557,
        "meta_inclination": 2.5049,
        "meta_ra_of_asc_node": 43.9477,
        "meta_arg_of_pericenter": 271.641,
        "meta_mean_anomaly": 158.9771,
        "meta_ephemeris_type": 0,
        "meta_classification_type": "U",
        "meta_norad_cat_id": 45344,
        "meta_element_set_no": 999,
        "meta_rev_at_epoch": 2143,
        "meta_bstar": 0,
        "meta_mean_motion_dot": -1.19e-06,
        "meta_mean_motion_ddot": 0,
        "tle_line1": "1 45344U 20017A   25350.85769914 -.00000119  00000+0  00000+0 0  9994",
        "tle_line2": "2 45344   2.5049  43.9477 0004355 271.6410 158.9771  1.00273145 21435"
      },
      "geometry": {
        "type": "Point",
        "coordinates": [
          -119.49606712251956,
          -0.7379283188774959
        ]
      }
    },
    {
      "type": "Feature",
      "properties": {
        "norad_id": 45807,
        "name": "BEIDOU-3 G3 (C61)",
        "group": "beidou",
        "lat": -0.8512068992424756,
        "lon": -88.98883625480573,
        "alt_km": 35792.84591883356,
        "timestamp": "2025-12-17T04:57:44.632688+00:00",
        "meta_object_name": "BEIDOU-3 G3 (C61)",
        "meta_object_id": "2020-040A",
        "meta_epoch": "2025-12-16T21:10:01.572096",
        "meta_mean_motion": 1.00272252,
        "meta_eccentricity": 0.00063755,
        "meta_inclination": 2.0011,
        "meta_ra_of_asc_node": 66.6197,
        "meta_arg_of_pericenter": 308.7522,
        "meta_mean_anomaly": 138.4817,
        "meta_ephemeris_type": 0,
        "meta_classification_type": "U",
        "meta_norad_cat_id": 45807,
        "meta_element_set_no": 999,
        "meta_rev_at_epoch": 2024,
        "meta_bstar": 0,
        "meta_mean_motion_dot": -3.31e-06,
        "meta_mean_motion_ddot": 0,
        "tle_line1": "1 45807U 20040A   25350.88196264 -.00000331  00000+0  00000+0 0  9995",
        "tle_line2": "2 45807   2.0011  66.6197 0006375 308.7522 138.4817  1.00272252 20244"
      },
      "geometry": {
        "type": "Point",
        "coordinates": [
          -88.98883625480573,
          -0.8512068992424756
        ]
      }
    }
  ]
}